{
"type": "FeatureCollection",
"name": "talhoes",
"crs": { "type": "name", "properties": { "name": "urn:ogc:def:crs:OGC:1.3:CRS84" } },
"features": [
{ "type": "Feature", "properties": { "talhao": "216", "area_ha": 49.77 }, "geometry": { "type": "Polygon", "coordinates": [ [ [ -47.9, -20.1 ], [ -47.89, -20.1 ], [ -47.89, -20.11 ], [ -47.9, -20.11 ], [ -47.9, -20.1 ] ] ] } },
{ "type": "Feature", "properties": { "talhao": "220", "area_ha": 61.42 }, "geometry": { "type": "Polygon", "coordinates": [ [ [ -47.91, -20.12 ], [ -47.9, -20.12 ], [ -47.9, -20.13 ], [ -47.91, -20.13 ], [ -47.91, -20.12 ] ] ] } },
{ "type": "Feature", "properties": { "talhao": "416", "area_ha": 12.56 }, "geometry": { "type": "Polygon", "coordinates": [ [ [ -47.915, -20.115 ], [ -47.905, -20.115 ], [ -47.905, -20.125 ], [ -47.915, -20.125 ], [ -47.915, -20.115 ] ] ] } }
]
}
