{
"type": "FeatureCollection",
"name": "talhoes_amostra",
"crs": { "type": "name", "properties": { "name": "urn:ogc:def:crs:OGC:1.3:CRS84" } },
"features": [
{ "type": "Feature", "properties": { "talhao": "216", "Name": "216", "classe": "Silvicultura", "area_ha": 49.77 }, "geometry": { "type": "Polygon", "coordinates": [ [ [ -47.9, -20.1 ], [ -47.89, -20.1 ], [ -47.89, -20.11 ], [ -47.9, -20.11 ], [ -47.9, -20.1 ] ] ] } },
{ "type": "Feature", "properties": { "talhao": "217", "Name": "217", "classe": "Silvicultura", "area_ha": 36.47 }, "geometry": { "type": "Polygon", "coordinates": [ [ [ -47.905, -20.1 ], [ -47.895, -20.1 ], [ -47.895, -20.105 ], [ -47.905, -20.105 ], [ -47.905, -20.1 ] ] ] } },
{ "type": "Feature", "properties": { "talhao": "220", "Name": "220", "classe": "Silvicultura", "area_ha": 61.42 }, "geometry": { "type": "Polygon", "coordinates": [ [ [ -47.91, -20.12 ], [ -47.9, -20.12 ], [ -47.9, -20.13 ], [ -47.91, -20.13 ], [ -47.91, -20.12 ] ] ] } },
{ "type": "Feature", "properties": { "talhao": "416", "Name": "416", "classe": "Silvipastoril", "area_ha": 12.56 }, "geometry": { "type": "Polygon", "coordinates": [ [ [ -47.915, -20.115 ], [ -47.905, -20.115 ], [ -47.905, -20.125 ], [ -47.915, -20.125 ], [ -47.915, -20.115 ] ] ] } },
{ "type": "Feature", "properties": { "talhao": "417", "Name": "417", "classe": "Silvipastoril", "area_ha": 12.63 }, "geometry": { "type": "Polygon", "coordinates": [ [ [ -47.916, -20.126 ], [ -47.906, -20.126 ], [ -47.906, -20.136 ], [ -47.916, -20.136 ], [ -47.916, -20.126 ] ] ] } }
]
}
